ONEWEB-0297             
1 49086U 21075M   25324.22224067 -.00000346  00000+0 -99840-3 0  9990
2 49086  87.8959  32.2065 0001661 101.1797 258.9518 13.12441778207772
ONEWEB-0298             
1 49087U 21075N   25324.21575136  .00000066  00000+0  13658-3 0  9996
2 49087  87.9132  47.4273 0001758 103.9795 256.1532 13.17646945206101
ONEWEB-0299             
1 49088U 21075P   25324.21730592  .00000084  00000+0  18419-3 0  9996
2 49088  87.9141  47.3868 0001580 102.9426 257.1882 13.17646709206088
ONEWEB-0300             
1 49089U 21075Q   25324.21413194 -.00000285  00000+0 -82761-3 0  9999
2 49089  87.8969  32.1659 0001869 111.0507 249.0822 13.12441581207796
ONEWEB-0301             
1 49090U 21075R   25324.19790974  .00000287  00000+0  76230-3 0  9996
2 49090  87.8968  32.1716 0001952 112.9011 247.2323 13.12440326207156
ONEWEB-0302             
1 49091U 21075S   25324.26117755  .00000513  00000+0  13901-2 0  9992
2 49091  87.8966  32.1668 0001749  89.9715 270.1614 13.12442493207143
ONEWEB-0304             
1 49092U 21075T   25324.26792781  .00000001  00000+0 -30962-4 0  9992
2 49092  87.9139  47.4075 0001613 100.4332 259.6982 13.17647089206065
ONEWEB-0305             
1 49093U 21075U   25324.26118329 -.00000372  00000+0 -99013-3 0  9996
2 49093  87.9142  47.3860 0000994  77.8560 282.2682 13.17651269206099
ONEWEB-0308             
1 49094U 21075V   25324.25467658 -.00000122  00000+0 -37581-3 0  9993
2 49094  87.8968  32.1608 0001715 102.0219 258.1102 13.12444414207155
ONEWEB-0309             
1 49095U 21075W   25324.26455434 -.00000218  00000+0 -59392-3 0  9994
2 49095  87.9141  47.4012 0001805  88.2153 271.9185 13.17649511206063
ONEWEB-0310             
1 49096U 21075X   25324.19304680  .00000415  00000+0  11168-2 0  9998
2 49096  87.8961  32.2120 0001783  96.9090 263.2241 13.12441845207777
ONEWEB-0311             
1 49097U 21075Y   25324.27130600  .00000029  00000+0  41087-4 0  9993
2 49097  87.9136  47.3959 0001387 107.7059 252.4225 13.17650122206110
ONEWEB-0312             
1 49098U 21075Z   25324.21055642  .00000049  00000+0  92477-4 0  9991
2 49098  87.9131  47.4357 0001398  92.5160 267.6132 13.17647116206085
ONEWEB-0313             
1 49099U 21075AA  25324.21551183 -.00002015  00000+0 -52263-2 0  9997
2 49099  87.9185  47.4434 0001220 103.1455 256.9813 13.17631173206073
ONEWEB-0314             
1 49100U 21075AB  25324.25780096  .00000078  00000+0  16777-3 0  9997
2 49100  87.9139  47.3837 0001423  94.4822 265.6472 13.17652267206059
ONEWEB-0315             
1 49101U 21075AC  25324.24333605  .00000126  00000+0  31463-3 0  9990
2 49101  87.8963  32.1497 0001467 109.5017 250.6271 13.12443740207769
