[{"OBJECT_NAME":"ONEWEB-0297","OBJECT_ID":"2021-075M","EPOCH":"2025-11-20T05:20:01.593888","MEAN_MOTION":13.12441778,"ECCENTRICITY":0.00016614,"INCLINATION":87.8959,"RA_OF_ASC_NODE":32.2065,"ARG_OF_PERICENTER":101.1797,"MEAN_ANOMALY":258.9518,"EPHEMERIS_TYPE":0,"CLASSIFICATION_TYPE":"U","NORAD_CAT_ID":49086,"ELEMENT_SET_NO":999,"REV_AT_EPOCH":20777,"BSTAR":-0.00099840368,"MEAN_MOTION_DOT":-3.46e-6,"MEAN_MOTION_DDOT":0},{"OBJECT_NAME":"ONEWEB-0298","OBJECT_ID":"2021-075N","EPOCH":"2025-11-20T05:10:40.917504","MEAN_MOTION":13.17646945,"ECCENTRICITY":0.0001758,"INCLINATION":87.9132,"RA_OF_ASC_NODE":47.4273,"ARG_OF_PERICENTER":103.9795,"MEAN_ANOMALY":256.1532,"EPHEMERIS_TYPE":0,"CLASSIFICATION_TYPE":"U","NORAD_CAT_ID":49087,"ELEMENT_SET_NO":999,"REV_AT_EPOCH":20610,"BSTAR":0.00013658042,"MEAN_MOTION_DOT":6.6e-7,"MEAN_MOTION_DDOT":0},{"OBJECT_NAME":"ONEWEB-0299","OBJECT_ID":"2021-075P","EPOCH":"2025-11-20T05:12:55.231488","MEAN_MOTION":13.17646709,"ECCENTRICITY":0.00015803,"INCLINATION":87.9141,"RA_OF_ASC_NODE":47.3868,"ARG_OF_PERICENTER":102.9426,"MEAN_ANOMALY":257.1882,"EPHEMERIS_TYPE":0,"CLASSIFICATION_TYPE":"U","NORAD_CAT_ID":49088,"ELEMENT_SET_NO":999,"REV_AT_EPOCH":20608,"BSTAR":0.00018419202,"MEAN_MOTION_DOT":8.4e-7,"MEAN_MOTION_DDOT":0},{"OBJECT_NAME":"ONEWEB-0300","OBJECT_ID":"2021-075Q","EPOCH":"2025-11-20T05:08:20.999616","MEAN_MOTION":13.12441581,"ECCENTRICITY":0.00018691,"INCLINATION":87.8969,"RA_OF_ASC_NODE":32.1659,"ARG_OF_PERICENTER":111.0507,"MEAN_ANOMALY":249.0822,"EPHEMERIS_TYPE":0,"CLASSIFICATION_TYPE":"U","NORAD_CAT_ID":49089,"ELEMENT_SET_NO":999,"REV_AT_EPOCH":20779,"BSTAR":-0.00082760819,"MEAN_MOTION_DOT":-2.85e-6,"MEAN_MOTION_DDOT":0},{"OBJECT_NAME":"ONEWEB-0301","OBJECT_ID":"2021-075R","EPOCH":"2025-11-20T04:44:59.401536","MEAN_MOTION":13.12440326,"ECCENTRICITY":0.00019524,"INCLINATION":87.8968,"RA_OF_ASC_NODE":32.1716,"ARG_OF_PERICENTER":112.9011,"MEAN_ANOMALY":247.2323,"EPHEMERIS_TYPE":0,"CLASSIFICATION_TYPE":"U","NORAD_CAT_ID":49090,"ELEMENT_SET_NO":999,"REV_AT_EPOCH":20715,"BSTAR":0.00076230217,"MEAN_MOTION_DOT":2.87e-6,"MEAN_MOTION_DDOT":0},{"OBJECT_NAME":"ONEWEB-0302","OBJECT_ID":"2021-075S","EPOCH":"2025-11-20T06:16:05.740320","MEAN_MOTION":13.12442493,"ECCENTRICITY":0.00017492,"INCLINATION":87.8966,"RA_OF_ASC_NODE":32.1668,"ARG_OF_PERICENTER":89.9715,"MEAN_ANOMALY":270.1614,"EPHEMERIS_TYPE":0,"CLASSIFICATION_TYPE":"U","NORAD_CAT_ID":49091,"ELEMENT_SET_NO":999,"REV_AT_EPOCH":20714,"BSTAR":0.0013900756,"MEAN_MOTION_DOT":5.13e-6,"MEAN_MOTION_DDOT":0},{"OBJECT_NAME":"ONEWEB-0304","OBJECT_ID":"2021-075T","EPOCH":"2025-11-20T06:25:48.962784","MEAN_MOTION":13.17647089,"ECCENTRICITY":0.00016133,"INCLINATION":87.9139,"RA_OF_ASC_NODE":47.4075,"ARG_OF_PERICENTER":100.4332,"MEAN_ANOMALY":259.6982,"EPHEMERIS_TYPE":0,"CLASSIFICATION_TYPE":"U","NORAD_CAT_ID":49092,"ELEMENT_SET_NO":999,"REV_AT_EPOCH":20606,"BSTAR":-3.0962077e-5,"MEAN_MOTION_DOT":1.0e-8,"MEAN_MOTION_DDOT":0},{"OBJECT_NAME":"ONEWEB-0305","OBJECT_ID":"2021-075U","EPOCH":"2025-11-20T06:16:06.236256","MEAN_MOTION":13.17651269,"ECCENTRICITY":9.949e-5,"INCLINATION":87.9142,"RA_OF_ASC_NODE":47.386,"ARG_OF_PERICENTER":77.856,"MEAN_ANOMALY":282.2682,"EPHEMERIS_TYPE":0,"CLASSIFICATION_TYPE":"U","NORAD_CAT_ID":49093,"ELEMENT_SET_NO":999,"REV_AT_EPOCH":20609,"BSTAR":-0.00099013373,"MEAN_MOTION_DOT":-3.72e-6,"MEAN_MOTION_DDOT":0},{"OBJECT_NAME":"ONEWEB-0308","OBJECT_ID":"2021-075V","EPOCH":"2025-11-20T06:06:44.056512","MEAN_MOTION":13.12444414,"ECCENTRICITY":0.00017155,"INCLINATION":87.8968,"RA_OF_ASC_NODE":32.1608,"ARG_OF_PERICENTER":102.0219,"MEAN_ANOMALY":258.1102,"EPHEMERIS_TYPE":0,"CLASSIFICATION_TYPE":"U","NORAD_CAT_ID":49094,"ELEMENT_SET_NO":999,"REV_AT_EPOCH":20715,"BSTAR":-0.00037581249,"MEAN_MOTION_DOT":-1.22e-6,"MEAN_MOTION_DDOT":0},{"OBJECT_NAME":"ONEWEB-0309","OBJECT_ID":"2021-075W","EPOCH":"2025-11-20T06:20:57.494976","MEAN_MOTION":13.17649511,"ECCENTRICITY":0.00018053,"INCLINATION":87.9141,"RA_OF_ASC_NODE":47.4012,"ARG_OF_PERICENTER":88.2153,"MEAN_ANOMALY":271.9185,"EPHEMERIS_TYPE":0,"CLASSIFICATION_TYPE":"U","NORAD_CAT_ID":49095,"ELEMENT_SET_NO":999,"REV_AT_EPOCH":20606,"BSTAR":-0.000593917,"MEAN_MOTION_DOT":-2.18e-6,"MEAN_MOTION_DDOT":0},{"OBJECT_NAME":"ONEWEB-0310","OBJECT_ID":"2021-075X","EPOCH":"2025-11-20T04:37:59.243520","MEAN_MOTION":13.12441845,"ECCENTRICITY":0.0001783,"INCLINATION":87.8961,"RA_OF_ASC_NODE":32.212,"ARG_OF_PERICENTER":96.909,"MEAN_ANOMALY":263.2241,"EPHEMERIS_TYPE":0,"CLASSIFICATION_TYPE":"U","NORAD_CAT_ID":49096,"ELEMENT_SET_NO":999,"REV_AT_EPOCH":20777,"BSTAR":0.0011168242,"MEAN_MOTION_DOT":4.15e-6,"MEAN_MOTION_DDOT":0},{"OBJECT_NAME":"ONEWEB-0311","OBJECT_ID":"2021-075Y","EPOCH":"2025-11-20T06:30:40.838400","MEAN_MOTION":13.17650122,"ECCENTRICITY":0.00013877,"INCLINATION":87.9136,"RA_OF_ASC_NODE":47.3959,"ARG_OF_PERICENTER":107.7059,"MEAN_ANOMALY":252.4225,"EPHEMERIS_TYPE":0,"CLASSIFICATION_TYPE":"U","NORAD_CAT_ID":49097,"ELEMENT_SET_NO":999,"REV_AT_EPOCH":20611,"BSTAR":4.1087336e-5,"MEAN_MOTION_DOT":2.9e-7,"MEAN_MOTION_DDOT":0},{"OBJECT_NAME":"ONEWEB-0312","OBJECT_ID":"2021-075Z","EPOCH":"2025-11-20T05:03:12.074688","MEAN_MOTION":13.17647116,"ECCENTRICITY":0.00013981,"INCLINATION":87.9131,"RA_OF_ASC_NODE":47.4357,"ARG_OF_PERICENTER":92.516,"MEAN_ANOMALY":267.6132,"EPHEMERIS_TYPE":0,"CLASSIFICATION_TYPE":"U","NORAD_CAT_ID":49098,"ELEMENT_SET_NO":999,"REV_AT_EPOCH":20608,"BSTAR":9.2476633e-5,"MEAN_MOTION_DOT":4.9e-7,"MEAN_MOTION_DDOT":0},{"OBJECT_NAME":"ONEWEB-0313","OBJECT_ID":"2021-075AA","EPOCH":"2025-11-20T05:10:20.222112","MEAN_MOTION":13.17631173,"ECCENTRICITY":0.000122,"INCLINATION":87.9185,"RA_OF_ASC_NODE":47.4434,"ARG_OF_PERICENTER":103.1455,"MEAN_ANOMALY":256.9813,"EPHEMERIS_TYPE":0,"CLASSIFICATION_TYPE":"U","NORAD_CAT_ID":49099,"ELEMENT_SET_NO":999,"REV_AT_EPOCH":20607,"BSTAR":-0.005226328,"MEAN_MOTION_DOT":-2.015e-5,"MEAN_MOTION_DDOT":0},{"OBJECT_NAME":"ONEWEB-0314","OBJECT_ID":"2021-075AB","EPOCH":"2025-11-20T06:11:14.002944","MEAN_MOTION":13.17652267,"ECCENTRICITY":0.00014231,"INCLINATION":87.9139,"RA_OF_ASC_NODE":47.3837,"ARG_OF_PERICENTER":94.4822,"MEAN_ANOMALY":265.6472,"EPHEMERIS_TYPE":0,"CLASSIFICATION_TYPE":"U","NORAD_CAT_ID":49100,"ELEMENT_SET_NO":999,"REV_AT_EPOCH":20605,"BSTAR":0.00016776695,"MEAN_MOTION_DOT":7.8e-7,"MEAN_MOTION_DDOT":0},{"OBJECT_NAME":"ONEWEB-0315","OBJECT_ID":"2021-075AC","EPOCH":"2025-11-20T05:50:24.234720","MEAN_MOTION":13.1244374,"ECCENTRICITY":0.00014674,"INCLINATION":87.8963,"RA_OF_ASC_NODE":32.1497,"ARG_OF_PERICENTER":109.5017,"MEAN_ANOMALY":250.6271,"EPHEMERIS_TYPE":0,"CLASSIFICATION_TYPE":"U","NORAD_CAT_ID":49101,"ELEMENT_SET_NO":999,"REV_AT_EPOCH":20776,"BSTAR":0.00031463259,"MEAN_MOTION_DOT":1.26e-6,"MEAN_MOTION_DDOT":0}]
